STARLINK-3137           
1 49449U 21104AT  26068.65432358  .00067866  00000+0  15700-2 0  9993
2 49449  53.2186 205.6680 0001396   7.8507 352.2522 15.41876935238968
R5-S2                   
1 60207U 24125E   26068.58670186  .00019099  00000+0  45388-3 0  9990
2 60207  97.2494 281.0493 0015901 228.6061 131.3820 15.41576958 93821
