[{"OBJECT_NAME":"STARLINK-3137","OBJECT_ID":"2021-104AT","EPOCH":"2026-03-09T15:42:13.557312","MEAN_MOTION":15.41876935,"ECCENTRICITY":0.00013964,"INCLINATION":53.2186,"RA_OF_ASC_NODE":205.668,"ARG_OF_PERICENTER":7.8507,"MEAN_ANOMALY":352.2522,"EPHEMERIS_TYPE":0,"CLASSIFICATION_TYPE":"U","NORAD_CAT_ID":49449,"ELEMENT_SET_NO":999,"REV_AT_EPOCH":23896,"BSTAR":0.0015700331,"MEAN_MOTION_DOT":0.00067866,"MEAN_MOTION_DDOT":0},{"OBJECT_NAME":"R5-S2","OBJECT_ID":"2024-125E","EPOCH":"2026-03-09T14:04:51.040704","MEAN_MOTION":15.41576958,"ECCENTRICITY":0.0015901,"INCLINATION":97.2494,"RA_OF_ASC_NODE":281.0493,"ARG_OF_PERICENTER":228.6061,"MEAN_ANOMALY":131.382,"EPHEMERIS_TYPE":0,"CLASSIFICATION_TYPE":"U","NORAD_CAT_ID":60207,"ELEMENT_SET_NO":999,"REV_AT_EPOCH":9382,"BSTAR":0.00045388,"MEAN_MOTION_DOT":0.00019099,"MEAN_MOTION_DDOT":0}]
